[Satellite]
VERSION=1.1
NAME=IRIS
NICKNAME=IRIS
TLE1=1 39197U 13033A   22342.27668115  .00001423  00000+0  19603-3 0  9999
TLE2=2 39197  97.9670 166.6384 0027111 184.0525 176.0471 14.79556230509675
STATUS=0
